{
  "type": "FeatureCollection",
  "features": [
    {
      "type": "Feature",
      "properties": {
        "norad_id": 66656,
        "name": "2025-274G",
        "group": "last-30-days",
        "lat": -70.33466761334373,
        "lon": -67.98106876419388,
        "alt_km": 589.8160362898589,
        "timestamp": "2025-12-08T08:58:59.558332+00:00",
        "meta_object_name": "2025-274G",
        "meta_object_id": "2025-274G",
        "meta_epoch": "2025-12-07T18:49:13.602144",
        "meta_mean_motion": 14.92228874,
        "meta_eccentricity": 0.00124916,
        "meta_inclination": 97.739,
        "meta_ra_of_asc_node": 269.0725,
        "meta_arg_of_pericenter": 276.0626,
        "meta_mean_anomaly": 83.9169,
        "meta_ephemeris_type": 0,
        "meta_classification_type": "U",
        "meta_norad_cat_id": 66656,
        "meta_element_set_no": 999,
        "meta_rev_at_epoch": 166,
        "meta_bstar": 0.00049262528,
        "meta_mean_motion_dot": 4.974e-05,
        "meta_mean_motion_ddot": 0,
        "tle_line1": "1 66656U 25274G   25341.78418521  .00004974  00000+0  49263-3 0  9990",
        "tle_line2": "2 66656  97.7390 269.0725 0012491 276.0626  83.9169 14.92228874  1669"
      },
      "geometry": {
        "type": "Point",
        "coordinates": [
          -67.98106876419388,
          -70.33466761334373
        ]
      }
    },
    {
      "type": "Feature",
      "properties": {
        "norad_id": 66657,
        "name": "SPIRONE",
        "group": "last-30-days",
        "lat": -63.31845615048841,
        "lon": -74.64519114495931,
        "alt_km": 589.9746394262011,
        "timestamp": "2025-12-08T08:58:59.558344+00:00",
        "meta_object_name": "SPIRONE",
        "meta_object_id": "2025-274H",
        "meta_epoch": "2025-12-07T18:47:19.096224",
        "meta_mean_motion": 14.92408524,
        "meta_eccentricity": 0.00109827,
        "meta_inclination": 97.7388,
        "meta_ra_of_asc_node": 269.0738,
        "meta_arg_of_pericenter": 295.0944,
        "meta_mean_anomaly": 64.9135,
        "meta_ephemeris_type": 0,
        "meta_classification_type": "U",
        "meta_norad_cat_id": 66657,
        "meta_element_set_no": 999,
        "meta_rev_at_epoch": 166,
        "meta_bstar": 0.0004828346,
        "meta_mean_motion_dot": 4.895e-05,
        "meta_mean_motion_ddot": 0,
        "tle_line1": "1 66657U 25274H   25341.78285991  .00004895  00000+0  48283-3 0  9997",
        "tle_line2": "2 66657  97.7388 269.0738 0010982 295.0944  64.9135 14.92408524  1662"
      },
      "geometry": {
        "type": "Point",
        "coordinates": [
          -74.64519114495931,
          -63.31845615048841
        ]
      }
    },
    {
      "type": "Feature",
      "properties": {
        "norad_id": 66658,
        "name": "2025-274J",
        "group": "last-30-days",
        "lat": -56.241435832750106,
        "lon": -78.60265047150162,
        "alt_km": 588.9443166907058,
        "timestamp": "2025-12-08T08:58:59.558357+00:00",
        "meta_object_name": "2025-274J",
        "meta_object_id": "2025-274J",
        "meta_epoch": "2025-12-07T18:45:26.624160",
        "meta_mean_motion": 14.92580815,
        "meta_eccentricity": 0.0011586,
        "meta_inclination": 97.7389,
        "meta_ra_of_asc_node": 269.0756,
        "meta_arg_of_pericenter": 298.0555,
        "meta_mean_anomaly": 61.9492,
        "meta_ephemeris_type": 0,
        "meta_classification_type": "U",
        "meta_norad_cat_id": 66658,
        "meta_element_set_no": 999,
        "meta_rev_at_epoch": 166,
        "meta_bstar": 0.00043815584,
        "meta_mean_motion_dot": 4.456e-05,
        "meta_mean_motion_ddot": 0,
        "tle_line1": "1 66658U 25274J   25341.78155815  .00004456  00000+0  43816-3 0  9999",
        "tle_line2": "2 66658  97.7389 269.0756 0011586 298.0555  61.9492 14.92580815  1663"
      },
      "geometry": {
        "type": "Point",
        "coordinates": [
          -78.60265047150162,
          -56.241435832750106
        ]
      }
    },
    {
      "type": "Feature",
      "properties": {
        "norad_id": 66659,
        "name": "JACK K",
        "group": "last-30-days",
        "lat": -48.61947074632757,
        "lon": -81.4586519831073,
        "alt_km": 587.8489858566618,
        "timestamp": "2025-12-08T08:58:59.558367+00:00",
        "meta_object_name": "JACK K",
        "meta_object_id": "2025-274K",
        "meta_epoch": "2025-12-07T20:19:58.694304",
        "meta_mean_motion": 14.9276752,
        "meta_eccentricity": 0.00123012,
        "meta_inclination": 97.739,
        "meta_ra_of_asc_node": 269.1436,
        "meta_arg_of_pericenter": 298.9287,
        "meta_mean_anomaly": 61.0698,
        "meta_ephemeris_type": 0,
        "meta_classification_type": "U",
        "meta_norad_cat_id": 66659,
        "meta_element_set_no": 999,
        "meta_rev_at_epoch": 167,
        "meta_bstar": 0.00043922873,
        "meta_mean_motion_dot": 4.489e-05,
        "meta_mean_motion_ddot": 0,
        "tle_line1": "1 66659U 25274K   25341.84720711  .00004489  00000+0  43923-3 0  9995",
        "tle_line2": "2 66659  97.7390 269.1436 0012301 298.9287  61.0698 14.92767520  1679"
      },
      "geometry": {
        "type": "Point",
        "coordinates": [
          -81.4586519831073,
          -48.61947074632757
        ]
      }
    },
    {
      "type": "Feature",
      "properties": {
        "norad_id": 66660,
        "name": "K-HERO",
        "group": "last-30-days",
        "lat": -42.452312908505235,
        "lon": -83.1880677555224,
        "alt_km": 586.9938507744009,
        "timestamp": "2025-12-08T08:58:59.558378+00:00",
        "meta_object_name": "K-HERO",
        "meta_object_id": "2025-274L",
        "meta_epoch": "2025-12-07T20:18:22.113792",
        "meta_mean_motion": 14.92915759,
        "meta_eccentricity": 0.00129295,
        "meta_inclination": 97.7395,
        "meta_ra_of_asc_node": 269.1456,
        "meta_arg_of_pericenter": 299.536,
        "meta_mean_anomaly": 60.457,
        "meta_ephemeris_type": 0,
        "meta_classification_type": "U",
        "meta_norad_cat_id": 66660,
        "meta_element_set_no": 999,
        "meta_rev_at_epoch": 167,
        "meta_bstar": 0.00037977318,
        "meta_mean_motion_dot": 3.889e-05,
        "meta_mean_motion_ddot": 0,
        "tle_line1": "1 66660U 25274L   25341.84608928  .00003889  00000+0  37977-3 0  9997",
        "tle_line2": "2 66660  97.7395 269.1456 0012929 299.5360  60.4570 14.92915759  1674"
      },
      "geometry": {
        "type": "Point",
        "coordinates": [
          -83.1880677555224,
          -42.452312908505235
        ]
      }
    },
    {
      "type": "Feature",
      "properties": {
        "norad_id": 66661,
        "name": "SNUGLITE-III",
        "group": "last-30-days",
        "lat": -36.142610860940444,
        "lon": -84.63225061880192,
        "alt_km": 586.1765822113293,
        "timestamp": "2025-12-08T08:58:59.558389+00:00",
        "meta_object_name": "SNUGLITE-III",
        "meta_object_id": "2025-274M",
        "meta_epoch": "2025-12-07T18:40:13.279872",
        "meta_mean_motion": 14.93063362,
        "meta_eccentricity": 0.00135128,
        "meta_inclination": 97.7393,
        "meta_ra_of_asc_node": 269.0808,
        "meta_arg_of_pericenter": 300.9026,
        "meta_mean_anomaly": 59.0865,
        "meta_ephemeris_type": 0,
        "meta_classification_type": "U",
        "meta_norad_cat_id": 66661,
        "meta_element_set_no": 999,
        "meta_rev_at_epoch": 166,
        "meta_bstar": 0.00038586643,
        "meta_mean_motion_dot": 3.968e-05,
        "meta_mean_motion_ddot": 0,
        "tle_line1": "1 66661U 25274M   25341.77793148  .00003968  00000+0  38587-3 0  9995",
        "tle_line2": "2 66661  97.7393 269.0808 0013512 300.9026  59.0865 14.93063362  1663"
      },
      "geometry": {
        "type": "Point",
        "coordinates": [
          -84.63225061880192,
          -36.142610860940444
        ]
      }
    },
    {
      "type": "Feature",
      "properties": {
        "norad_id": 66662,
        "name": "2025-274N",
        "group": "last-30-days",
        "lat": -33.600401131490294,
        "lon": -85.14724569205903,
        "alt_km": 585.8722308222486,
        "timestamp": "2025-12-08T08:58:59.558399+00:00",
        "meta_object_name": "2025-274N",
        "meta_object_id": "2025-274N",
        "meta_epoch": "2025-12-07T18:39:33.414912",
        "meta_mean_motion": 14.93109262,
        "meta_eccentricity": 0.00139556,
        "meta_inclination": 97.739,
        "meta_ra_of_asc_node": 269.0817,
        "meta_arg_of_pericenter": 300.0906,
        "meta_mean_anomaly": 59.8929,
        "meta_ephemeris_type": 0,
        "meta_classification_type": "U",
        "meta_norad_cat_id": 66662,
        "meta_element_set_no": 999,
        "meta_rev_at_epoch": 166,
        "meta_bstar": 0.0002553501,
        "meta_mean_motion_dot": 2.609e-05,
        "meta_mean_motion_ddot": 0,
        "tle_line1": "1 66662U 25274N   25341.77747008  .00002609  00000+0  25535-3 0  9990",
        "tle_line2": "2 66662  97.7390 269.0817 0013955 300.0906  59.8929 14.93109262  1669"
      },
      "geometry": {
        "type": "Point",
        "coordinates": [
          -85.14724569205903,
          -33.600401131490294
        ]
      }
    }
  ]
}